{
  "links" : {
    "next" : "https://api.nasa.gov/neo/rest/v1/feed?start_date=1997-03-23&end_date=1997-03-23&detailed=true&api_key=t0TVs3DtDT2H8Oy2Zy8m2eVrNsAVKAexjcZXUckd",
    "prev" : "https://api.nasa.gov/neo/rest/v1/feed?start_date=1997-03-21&end_date=1997-03-21&detailed=true&api_key=t0TVs3DtDT2H8Oy2Zy8m2eVrNsAVKAexjcZXUckd",
    "self" : "https://api.nasa.gov/neo/rest/v1/feed?start_date=1997-03-22&end_date=1997-03-22&detailed=true&api_key=t0TVs3DtDT2H8Oy2Zy8m2eVrNsAVKAexjcZXUckd"
  },
  "element_count" : 7,
  "near_earth_objects" : {
    "1997-03-22" : [ {
      "links" : {
        "self" : "https://api.nasa.gov/neo/rest/v1/neo/3256319?api_key=t0TVs3DtDT2H8Oy2Zy8m2eVrNsAVKAexjcZXUckd"
      },
      "neo_reference_id" : "3256319",
      "name" : "(2004 TB10)",
      "nasa_jpl_url" : "http://ssd.jpl.nasa.gov/sbdb.cgi?sstr=3256319",
      "absolute_magnitude_h" : 21.3,
      "estimated_diameter" : {
        "kilometers" : {
          "estimated_diameter_min" : 0.1460679643,
          "estimated_diameter_max" : 0.3266178974
        },
        "meters" : {
          "estimated_diameter_min" : 146.0679642714,
          "estimated_diameter_max" : 326.6178974458
        },
        "miles" : {
          "estimated_diameter_min" : 0.090762397,
          "estimated_diameter_max" : 0.2029508896
        },
        "feet" : {
          "estimated_diameter_min" : 479.2256199,
          "estimated_diameter_max" : 1071.581062656
        }
      },
      "is_potentially_hazardous_asteroid" : true,
      "close_approach_data" : [ {
        "close_approach_date" : "1997-03-22",
        "epoch_date_close_approach" : 859017600000,
        "relative_velocity" : {
          "kilometers_per_second" : "14.2245577999",
          "kilometers_per_hour" : "51208.4080797415",
          "miles_per_hour" : "31818.9133426594"
        },
        "miss_distance" : {
          "astronomical" : "0.3003429343",
          "lunar" : "116.833404541",
          "kilometers" : "44930664",
          "miles" : "27918622"
        },
        "orbiting_body" : "Earth"
      } ],
      "orbital_data" : {
        "orbit_id" : "16",
        "orbit_determination_date" : "2017-08-27 19:12:02",
        "orbit_uncertainty" : "1",
        "minimum_orbit_intersection" : ".0133879",
        "jupiter_tisserand_invariant" : "5.562",
        "epoch_osculation" : "2458000.5",
        "eccentricity" : ".09383875272676956",
        "semi_major_axis" : "1.103616721443335",
        "inclination" : "22.50375358846119",
        "ascending_node_longitude" : "12.85604695074315",
        "orbital_period" : "423.4731066578753",
        "perihelion_distance" : "1.000054704814685",
        "perihelion_argument" : "149.8947471568081",
        "aphelion_distance" : "1.207178738071984",
        "perihelion_time" : "2458113.336678522938",
        "mean_anomaly" : "264.0760708776826",
        "mean_motion" : ".8501130162460225",
        "equinox" : "J2000"
      }
    } ]
  }
}